IRIDIUM 155             
1 43573U 18061E   25360.64331564  .00000003  00000+0 -60438-5 0  9995
2 43573  86.3993 128.8287 0002062  99.0281 261.1148 14.34217677388629
IRIDIUM 154             
1 43574U 18061F   25360.76382440  .00000356  00000+0  12003-3 0  9991
2 43574  86.3985 128.9026 0002043  93.0198 267.1231 14.34217099388697
IRIDIUM 163             
1 43575U 18061G   25360.74479612  .00000124  00000+0  37204-4 0  9992
2 43575  86.3988 128.8316 0001886  98.2950 261.8460 14.34217577388662
IRIDIUM 156             
1 43576U 18061H   25360.71942683  .00000352  00000+0  11877-3 0  9993
2 43576  86.3984 128.8492 0002221  97.9320 262.2128 14.34218263388653
IRIDIUM 164             
1 43577U 18061J   25360.42132780  .00000325  00000+0  10907-3 0  9994
2 43577  86.3986 129.0112 0002069  89.8380 270.3053 14.34221727388650
IRIDIUM 159             
1 43578U 18061K   25360.59891707 -.00000062  00000+0 -29101-4 0  9991
2 43578  86.3991 128.8778 0001815  93.0964 267.0439 14.34217316388644
IRIDIUM 180             
1 43922U 19002A   25360.59841213  .00000055  00000+0  12651-4 0  9999
2 43922  86.3955  65.7469 0001970  97.6259 262.5161 14.34218264364258
IRIDIUM 176             
1 43923U 19002B   25360.58898355  .00000920  00000+0  14206-3 0  9996
2 43923  86.6076  65.7198 0002252  94.9325 265.2150 14.72250654373858
IRIDIUM 168             
1 43924U 19002C   25360.59207087  .00000195  00000+0  62687-4 0  9995
2 43924  86.3959  65.8223 0002141  98.5933 261.5506 14.34217636364235
IRIDIUM 173             
1 43925U 19002D   25360.43984375  .00000503  00000+0  17239-3 0  9996
2 43925  86.3957  65.7816 0002107 100.4300 259.7134 14.34216048364191
IRIDIUM 169             
1 43926U 19002E   25360.54526523  .00000462  00000+0  14448-3 0  9999
2 43926  86.4223  97.3914 0002730 117.6993 242.4483 14.38609201365401
IRIDIUM 172             
1 43927U 19002F   25360.57304258  .00000102  00000+0  29300-4 0  9997
2 43927  86.3957  65.7334 0002017  96.0276 264.1150 14.34217790364227
IRIDIUM 175             
1 43928U 19002G   25360.44834276  .00001000  00000+0  15465-3 0  9996
2 43928  86.1498   7.4082 0003128  79.2065 280.9504 14.72246100373826
IRIDIUM 171             
1 43929U 19002H   25360.62378842  .00000296  00000+0  98576-4 0  9990
2 43929  86.3966  65.9997 0002444  95.4342 264.7132 14.34220298364220
IRIDIUM 170             
1 43930U 19002J   25360.59514949  .00001019  00000+0  15768-3 0  9993
2 43930  86.6079  65.7208 0002290  91.4156 268.7324 14.72266509373865
IRIDIUM 167             
1 43931U 19002K   25360.61744271 -.00000021  00000+0 -14545-4 0  9997
2 43931  86.3951  65.7354 0002520  99.1563 260.9918 14.34217348364225
IRIDIUM 181             
1 56726U 23068S   25360.61492878  .00000222  00000+0  60073-4 0  9991
2 56726  86.4522 128.9316 0002116  82.8629 277.2813 14.43310292137549
IRIDIUM 177             
1 56727U 23068T   25360.60048274  .00001327  00000+0  17106-3 0  9993
2 56727  86.1953  50.7459 0002144  88.1411 272.0056 14.80242120140837
IRIDIUM 174             
1 56728U 23068U   25360.58281010  .00001088  00000+0  16862-3 0  9990
2 56728  86.6085  65.8559 0002059  92.1644 267.9809 14.72261179140627
IRIDIUM 178             
1 56729U 23068V   25360.52196703  .00001631  00000+0  21120-3 0  9996
2 56729  86.6543  97.5417 0002494  90.5172 269.6335 14.80240599140820
IRIDIUM 179             
1 56730U 23068W   25360.24619325  .00001416  00000+0  18291-3 0  9993
2 56730  86.6786 106.1211 0002389  90.6625 269.4870 14.80233429140788
